NORAD_CAT_ID,OBJECT_NAME,OBJECT_TYPE,EPOCH,MEAN_MOTION,ECCENTRICITY,INCLINATION,RA_OF_ASC_NODE,ARG_OF_PERICENTER,MEAN_ANOMALY,BSTAR,MEAN_MOTION_DOT,MEAN_MOTION_DDOT,TLE_LINE0,TLE_LINE1,TLE_LINE2,SEMIMAJOR_AXIS,PERIOD,APOGEE,PERIGEE,DECAYED
53777.0,STARLINK-4664,PAYLOAD,2024-01-09 13:49:25,15.0884338,0.0001449,53.2163,221.235,85.4522,274.6636,4.1387e-05,3.71e-06,0.0,0 STARLINK-4664,1 53777U 22111E   24009.57599195  .00000371  00000-0  41387-4 0  9999,2 53777  53.2163 221.2350 0001449  85.4522 274.6636 15.08843380 74410,6917.87,95.437,540.737,538.733,0.0
53777.0,STARLINK-4664,PAYLOAD,2024-01-09 20:10:57,15.0884597,0.0001457,53.2162,220.047,87.0514,273.0645,6.0985e-05,6.83e-06,0.0,0 STARLINK-4664,1 53777U 22111E   24009.84094882  .00000683  00000-0  60985-4 0  9993,2 53777  53.2162 220.0470 0001457  87.0514 273.0645 15.08845970 74451,6917.862,95.437,540.735,538.719,0.0
53777.0,STARLINK-4664,PAYLOAD,2024-01-10 18:26:22,15.0883867,0.0001407,53.2155,215.8848,83.2087,276.9065,1.7819e-05,-4e-08,0.0,0 STARLINK-4664,1 53777U 22111E   24010.76831483 -.00000004  00000-0  17819-4 0  9998,2 53777  53.2155 215.8848 0001407  83.2087 276.9065 15.08838670 73784,6917.884,95.438,540.723,538.776,0.0
53777.0,STARLINK-4664,PAYLOAD,2024-01-11 13:30:59,15.08843666,0.0001342,53.2152,212.3164,89.2508,270.8638,8.0385e-05,9.92e-06,0.0,0 STARLINK-4664,1 53777U 22111E   24011.56318862  .00000992  00000-0  80385-4 0  9991,2 53777  53.2152 212.3164 0001342  89.2508 270.8638 15.08843666 74710,6917.869,95.437,540.663,538.806,0.0
53777.0,STARLINK-4664,PAYLOAD,2024-01-11 18:17:08,15.08845171,0.0001386,53.2156,211.4244,91.4144,268.7007,8.9073e-05,1.13e-05,0.0,0 STARLINK-4664,1 53777U 22111E   24011.76190709  .00001130  00000-0  89073-4 0  9999,2 53777  53.2156 211.4244 0001386  91.4144 268.7007 15.08845171 73934,6917.865,95.437,540.688,538.771,0.0
53777.0,STARLINK-4664,PAYLOAD,2024-01-12 13:21:46,15.08839137,0.0001328,53.215,207.8578,72.5759,287.5378,4.549e-05,4.36e-06,0.0,0 STARLINK-4664,1 53777U 22111E   24012.55679368  .00000436  00000-0  45490-4 0  9993,2 53777  53.2150 207.8578 0001328  72.5759 287.5378 15.08839137 74863,6917.883,95.438,540.667,538.829,0.0
53777.0,STARLINK-4664,PAYLOAD,2024-01-12 19:43:19,15.0883468,0.0001327,53.2157,206.6665,94.1692,265.9451,8.6116e-06,-1.51e-06,0.0,0 STARLINK-4664,1 53777U 22111E   24012.82175658 -.00000151  00000-0  86116-5 0  9992,2 53777  53.2157 206.6665 0001327  94.1692 265.9451 15.08834680 74094,6917.897,95.438,540.68,538.844,0.0
53777.0,STARLINK-4664,PAYLOAD,2024-01-13 19:34:05,15.08851822,0.0001305,53.2152,202.2041,94.8037,265.3104,0.00010188,1.334e-05,0.0,0 STARLINK-4664,1 53777U 22111E   24013.81534197  .00001334  00000-0  10188-3 0  9996,2 53777  53.2152 202.2041 0001305  94.8037 265.3104 15.08851822 74248,6917.844,95.437,540.612,538.806,0.0
53777.0,STARLINK-4664,PAYLOAD,2024-01-14 13:03:21,15.08835554,0.0001345,53.2162,198.931,91.6664,268.4482,6.8035e-05,7.95e-06,0.0,0 STARLINK-4664,1 53777U 22111E   24014.54399406  .00000795  00000-0  68035-4 0  9994,2 53777  53.2162 198.9310 0001345  91.6664 268.4482 15.08835554 75163,6917.894,95.438,540.689,538.829,0.0
53777.0,STARLINK-4664,PAYLOAD,2024-01-14 19:24:54,15.08831082,0.0001279,53.216,197.7414,92.6529,267.461,2.1282e-05,5.1e-07,0.0,0 STARLINK-4664,1 53777U 22111E   24014.80895919  .00000051  00000-0  21282-4 0  9991,2 53777  53.2160 197.7414 0001279  92.6529 267.4610 15.08831082 74398,6917.908,95.438,540.657,538.888,0.0
53777.0,STARLINK-4664,PAYLOAD,2024-01-14 21:00:17,15.08831608,0.0001274,53.216,197.444,92.3981,267.7157,2.3736e-05,9e-07,0.0,0 STARLINK-4664,1 53777U 22111E   24014.87519910  .00000090  00000-0  23736-4 0  9991,2 53777  53.2160 197.4440 0001274  92.3981 267.7157 15.08831608 75213,6917.906,95.438,540.652,538.89,0.0
53777.0,STARLINK-4664,PAYLOAD,2024-01-15 19:15:40,15.088485,0.0001316,53.2158,193.2836,79.1181,280.996,1.3662e-05,-7e-07,0.0,0 STARLINK-4664,1 53777U 22111E   24015.80255030 -.00000070  00000-0  13662-4 0  9991,2 53777  53.2158 193.2836 0001316  79.1181 280.9960 15.08848500 74548,6917.854,95.437,540.63,538.809,0.0
53777.0,STARLINK-4664,PAYLOAD,2024-01-16 19:06:27,15.08837132,0.0001311,53.216,188.8261,78.9355,281.1785,0.00011303,1.511e-05,0.0,0 STARLINK-4664,1 53777U 22111E   24016.79615680  .00001511  00000-0  11303-3 0  9990,2 53777  53.2160 188.8261 0001311  78.9355 281.1785 15.08837132 74691,6917.889,95.438,540.661,538.847,0.0
53777.0,STARLINK-4664,PAYLOAD,2024-01-17 17:21:51,15.08844806,0.000148,53.2174,184.6571,77.2121,282.9036,1.3391e-05,-7.5e-07,0.0,0 STARLINK-4664,1 53777U 22111E   24017.72351624 -.00000075  00000-0  13391-4 0  9994,2 53777  53.2174 184.6571 0001480  77.2121 282.9036 15.08844806 75644,6917.866,95.437,540.755,538.707,0.0
53777.0,STARLINK-4664,PAYLOAD,2024-01-18 14:01:52,15.0882944,0.0001371,53.2165,180.7924,100.9784,259.1363,0.00022698,3.325e-05,0.0,0 STARLINK-4664,1 53777U 22111E   24018.58463779  .00003325  00000-0  22698-3 0  9993,2 53777  53.2165 180.7924 0001371 100.9784 259.1363 15.08829440 75771,6917.913,95.438,540.726,538.829,0.0
53777.0,STARLINK-4664,PAYLOAD,2024-01-18 17:12:38,15.08841816,0.0001424,53.2171,180.1964,84.9328,275.1827,8.0375e-05,9.92e-06,0.0,0 STARLINK-4664,1 53777U 22111E   24018.71711586  .00000992  00000-0  80375-4 0  9994,2 53777  53.2171 180.1964 0001424  84.9328 275.1827 15.08841816 74986,6917.875,95.437,540.725,538.755,0.0
53777.0,STARLINK-4664,PAYLOAD,2024-01-19 13:52:39,15.08841434,0.0001551,53.2176,176.3352,106.0524,254.0639,7.4458e-05,8.97e-06,0.0,0 STARLINK-4664,1 53777U 22111E   24019.57823566  .00000897  00000-0  74458-4 0  9990,2 53777  53.2176 176.3352 0001551 106.0524 254.0639 15.08841434 75922,6917.876,95.437,540.814,538.668,0.0
53777.0,STARLINK-4664,PAYLOAD,2024-01-19 17:03:25,15.08842638,0.000154,53.2178,175.7404,103.8765,256.2399,7.9382e-05,9.76e-06,0.0,0 STARLINK-4664,1 53777U 22111E   24019.71071469  .00000976  00000-0  79382-4 0  9992,2 53777  53.2178 175.7404 0001540 103.8765 256.2399 15.08842638 75941,6917.872,95.437,540.803,538.672,0.0
53777.0,STARLINK-4664,PAYLOAD,2024-01-20 13:43:27,15.08836323,0.0001621,53.2185,171.8767,107.9276,252.1893,2.1621e-05,5.6e-07,0.0,0 STARLINK-4664,1 53777U 22111E   24020.57184139  .00000056  00000-0  21621-4 0  9999,2 53777  53.2185 171.8767 0001621 107.9276 252.1893 15.08836323 76073,6917.892,95.438,540.878,538.635,0.0
53777.0,STARLINK-4664,PAYLOAD,2024-01-20 16:54:13,15.08837802,0.0001588,53.2182,171.2816,105.2042,254.9125,3.0621e-05,1.99e-06,0.0,0 STARLINK-4664,1 53777U 22111E   24020.70432024  .00000199  00000-0  30621-4 0  9991,2 53777  53.2182 171.2816 0001588 105.2042 254.9125 15.08837802 75286,6917.887,95.438,540.851,538.654,0.0
53777.0,STARLINK-4664,PAYLOAD,2024-01-21 15:09:37,15.08837564,0.0001543,53.2177,167.1157,94.8142,265.3027,2.1194e-05,4.9e-07,0.0,0 STARLINK-4664,1 53777U 22111E   24021.63168337  .00000049  00000-0  21194-4 0  9996,2 53777  53.2177 167.1157 0001543  94.8142 265.3027 15.08837564 76235,6917.888,95.438,540.82,538.685,0.0
53777.0,STARLINK-4664,PAYLOAD,2024-01-22 10:14:15,15.08834207,0.0001589,53.2178,163.5471,93.5372,266.5802,7.0709e-05,8.37e-06,0.0,0 STARLINK-4664,1 53777U 22111E   24022.42656657  .00000837  00000-0  70709-4 0  9992,2 53777  53.2178 163.5471 0001589  93.5372 266.5802 15.08834207 75544,6917.898,95.438,540.862,538.664,0.0
53777.0,STARLINK-4664,PAYLOAD,2024-01-22 16:35:47,15.08839743,0.0001534,53.2176,162.3578,88.8807,271.2361,0.00010719,1.418e-05,0.0,0 STARLINK-4664,1 53777U 22111E   24022.69152304  .00001418  00000-0  10719-3 0  9991,2 53777  53.2176 162.3578 0001534  88.8807 271.2361 15.08839743 76394,6917.881,95.438,540.807,538.685,0.0
53777.0,STARLINK-4664,PAYLOAD,2024-01-23 16:26:34,15.08850023,0.0001676,53.2177,157.8969,66.759,293.3578,0.00014865,2.079e-05,0.0,0 STARLINK-4664,1 53777U 22111E   24023.68511654  .00002079  00000-0  14865-3 0  9998,2 53777  53.2177 157.8969 0001676  66.7590 293.3578 15.08850023 76545,6917.85,95.437,540.874,538.555,0.0
53777.0,STARLINK-4664,PAYLOAD,2024-01-24 14:41:59,15.08838609,0.0001509,53.2172,153.7377,82.5556,277.5607,-6.2423e-06,-3.87e-06,0.0,0 STARLINK-4664,1 53777U 22111E   24024.61249003 -.00000387  00000-0 -62423-5 0  9995,2 53777  53.2172 153.7377 0001509  82.5556 277.5607 15.08838609 76689,6917.885,95.438,540.794,538.706,0.0
53777.0,STARLINK-4664,PAYLOAD,2024-01-24 16:17:22,15.08839805,0.0001542,53.2174,153.4406,78.0555,282.061,5.3013e-06,-2.04e-06,0.0,0 STARLINK-4664,1 53777U 22111E   24024.67872936 -.00000204  00000-0  53013-5 0  9990,2 53777  53.2174 153.4406 0001542  78.0555 282.0610 15.08839805 75882,6917.881,95.438,540.813,538.679,0.0
53777.0,STARLINK-4664,PAYLOAD,2024-01-25 14:32:47,15.0883146,0.0001523,53.2169,149.2818,80.3362,279.7802,-0.00015329,-2.726e-05,0.0,0 STARLINK-4664,1 53777U 22111E   24025.60610439 -.00002726  00000-0 -15329-3 0  9990,2 53777  53.2169 149.2818 0001523  80.3362 279.7802 15.08831460 76838,6917.906,95.438,540.825,538.718,0.0
53777.0,STARLINK-4664,PAYLOAD,2024-01-26 11:12:47,15.08843839,0.0001414,53.2189,145.4046,114.5257,245.5882,7.2968e-05,8.74e-06,0.0,0 STARLINK-4664,1 53777U 22111E   24026.46721324  .00000874  00000-0  72968-4 0  9994,2 53777  53.2189 145.4046 0001414 114.5257 245.5882 15.08843839 76150,6917.869,95.437,540.712,538.755,0.0
53777.0,STARLINK-4664,PAYLOAD,2024-01-26 14:23:32,15.08854575,0.000147,53.2173,144.8156,94.0309,266.0852,0.00020752,3.018e-05,0.0,0 STARLINK-4664,1 53777U 22111E   24026.59968243  .00003018  00000-0  20752-3 0  9997,2 53777  53.2173 144.8156 0001470  94.0309 266.0852 15.08854575 76985,6917.836,95.437,540.718,538.684,0.0
53777.0,STARLINK-4664,PAYLOAD,2024-01-27 12:38:57,15.0884114,0.000164,53.2182,140.6496,102.8822,257.2353,0.00016244,2.298e-05,0.0,0 STARLINK-4664,1 53777U 22111E   24027.52705303  .00002298  00000-0  16244-3 0  9997,2 53777  53.2182 140.6496 0001640 102.8822 257.2353 15.08841140 76312,6917.877,95.437,540.876,538.607,0.0
